ONEWEB-0328             
1 49197U 21083M   26001.46866526 -.00000171  00000+0 -50342-3 0  9993
2 49197  87.8989 353.3346 0001604  90.5305 269.6008 13.13469450209010
ONEWEB-0331             
1 49198U 21083N   26001.52252798  .00000040  00000+0  67780-4 0  9999
2 49198  87.9172   8.5410 0001880 100.4820 259.6524 13.18687358208044
ONEWEB-0333             
1 49199U 21083P   26001.46358779 -.00000264  00000+0 -75830-3 0  9993
2 49199  87.8971 353.3854 0001768  86.3712 273.7619 13.13469315209028
ONEWEB-0334             
1 49200U 21083Q   26001.40183799  .00000055  00000+0  10444-3 0  9994
2 49200  87.9216 307.7259 0002007  47.5404 312.5899 13.20772572214770
ONEWEB-0335             
1 49201U 21083R   26001.45851310 -.00000232  00000+0 -66982-3 0  9998
2 49201  87.8979 353.3754 0001845  92.4061 267.7280 13.13468904209031
ONEWEB-0336             
1 49202U 21083S   26001.50590987  .00000325  00000+0  85464-3 0  9992
2 49202  87.8977 353.3629 0001865  99.0730 261.0610 13.13468380209031
ONEWEB-0337             
1 49203U 21083T   26001.51593066  .00000089  00000+0  20963-3 0  9995
2 49203  87.8978 353.3726 0001617  92.8099 267.3215 13.13470016209034
ONEWEB-0338             
1 49204U 21083U   26001.37659865 -.00000020  00000+0 -80442-4 0  9996
2 49204  87.9215 307.7342 0001699  68.3551 291.7763 13.20772257214796
ONEWEB-0339             
1 49205U 21083V   26001.52453024 -.00000176  00000+0 -51583-3 0  9998
2 49205  87.8980 353.3538 0001581  84.9098 275.2211 13.13469641209015
ONEWEB-0340             
1 49206U 21083W   26001.50933255  .00000036  00000+0  58798-4 0  9995
2 49206  87.9175   8.5486 0001794  91.6245 268.5093 13.18687194208000
ONEWEB-0341             
1 49207U 21083X   26001.51592638  .00000000  00000+0 -33098-4 0  9991
2 49207  87.9172   8.5583 0001333 104.5273 255.6008 13.18686847208029
ONEWEB-0342             
1 49208U 21083Y   26001.38290315  .00000005  00000+0 -20222-4 0  9994
2 49208  87.9223 307.7058 0001701  71.7539 288.3779 13.20772489214764
ONEWEB-0343             
1 49209U 21083Z   26001.52418250  .00000067  00000+0  13714-3 0  9995
2 49209  87.9175   8.5496 0001159  88.6807 271.4458 13.18686714208071
ONEWEB-0344             
1 49210U 21083AA  26001.51945093 -.00000070  00000+0 -22726-3 0  9995
2 49210  87.8973 353.3847 0001451  98.0122 262.1171 13.13468498209015
ONEWEB-0345             
1 49211U 21083AB  26001.43481339  .00000247  00000+0  64123-3 0  9996
2 49211  87.8980 353.3630 0001399  94.3442 265.7847 13.13469983209018
ONEWEB-0346             
1 49212U 21083AC  26001.52089483  .00000047  00000+0  87313-4 0  9996
2 49212  87.9168   8.5643 0002269  99.7166 260.4223 13.18684961208019
ONEWEB-0348             
1 49213U 21083AD  26001.37343324  .00000034  00000+0  50758-4 0  9996
2 49213  87.9219 307.7119 0001752  97.0098 263.1235 13.20772840214792
ONEWEB-0350             
1 49214U 21083AE  26001.52029101 -.00000010  00000+0 -61046-4 0  9996
2 49214  87.8987 353.3442 0001520  95.7765 264.3538 13.13467541209052
ONEWEB-0351             
1 49215U 21083AF  26001.36699037  .00000051  00000+0  92664-4 0  9993
2 49215  87.9223 307.7106 0001331  46.0080 314.1163 13.20771327214755
ONEWEB-0352             
1 49216U 21083AG  26001.42465478  .00000373  00000+0  98780-3 0  9992
2 49216  87.8972 353.3837 0001452  76.8156 283.3135 13.13468854209135
ONEWEB-0354             
1 49217U 21083AH  26001.39237374 -.00000021  00000+0 -83988-4 0  9998
2 49217  87.9222 307.7049 0001625  87.6421 272.4898 13.20772355214795
ONEWEB-0355             
1 49218U 21083AJ  26001.52974561 -.00000282  00000+0 -80634-3 0  9993
2 49218  87.8975 353.3762 0001498  86.9302 273.1999 13.13468364209021
ONEWEB-0357             
1 49219U 21083AK  26001.38922030 -.00000025  00000+0 -93700-4 0  9996
2 49219  87.9220 307.7016 0001589  76.6435 283.4876 13.20771488214795
ONEWEB-0332             
1 49279U 21090A   26001.44455669 -.00000138  00000+0 -40802-3 0  9995
2 49279  87.9000 322.9383 0001791  72.6979 287.4347 13.14504716205672
ONEWEB-0347             
1 49280U 21090B   26001.37975642 -.00000029  00000+0 -10355-3 0  9996
2 49280  87.9215 307.7125 0002001  71.8822 288.2529 13.20771903209025
ONEWEB-0349             
1 49281U 21090C   26001.56282116  .00000131  00000+0  29070-3 0  9991
2 49281  87.9221 307.6750 0001684  77.0463 283.0859 13.20772203207831
ONEWEB-0353             
1 49282U 21090D   26001.43664180 -.00000078  00000+0 -24573-3 0  9998
2 49282  87.9012 322.9276 0001884  72.2814 287.8521 13.14501729205676
ONEWEB-0356             
1 49283U 21090E   26001.56124233  .00000142  00000+0  31764-3 0  9993
2 49283  87.9222 307.6687 0002622  84.3162 275.8271 13.20772438207830
ONEWEB-0358             
1 49284U 21090F   26001.36396496  .00000021  00000+0  20960-4 0  9997
2 49284  87.9224 307.7094 0001779  81.7041 278.4294 13.20772176208536
ONEWEB-0359             
1 49285U 21090G   26001.36080452  .00000024  00000+0  26911-4 0  9995
2 49285  87.9222 307.7082 0001587  91.8035 268.3280 13.20771530208518
ONEWEB-0360             
1 49286U 21090H   26001.57861526  .00000075  00000+0  15278-3 0  9997
2 49286  87.9214 307.6724 0001633  81.4468 278.6850 13.20772443207856
ONEWEB-0361             
1 49287U 21090J   26001.55968242  .00000097  00000+0  20783-3 0  9990
2 49287  87.9220 307.6730 0001903  80.1650 279.9698 13.20771447208308
ONEWEB-0362             
1 49288U 21090K   26001.45610692  .00000006  00000+0 -18356-4 0  9998
2 49288  87.9202 338.1591 0001489  79.1276 281.0024 13.19726657204926
ONEWEB-0363             
1 49289U 21090L   26001.57544909  .00000125  00000+0  27431-3 0  9993
2 49289  87.9223 307.6696 0002046  83.6771 276.4596 13.20772565208317
ONEWEB-0364             
1 49290U 21090M   26001.38605851  .00000012  00000+0 -26523-5 0  9997
2 49290  87.9213 307.7286 0001832  79.5012 280.6328 13.20773104209421
ONEWEB-0365             
1 49291U 21090N   26001.46558976 -.00000020  00000+0 -82568-4 0  9992
2 49291  87.9222 338.1261 0001713  79.8654 280.2672 13.19726631204431
ONEWEB-0366             
1 49292U 21090P   26001.58569543  .00000040  00000+0  72838-4 0  9997
2 49292  87.9005 322.9131 0001776  81.9006 278.2326 13.14504322205678
ONEWEB-0367             
1 49293U 21090Q   26001.57388018  .00000100  00000+0  21507-3 0  9996
2 49293  87.9225 307.6692 0001585  73.1315 286.9992 13.20772646207837
ONEWEB-0368             
1 49294U 21090R   26001.54705451  .00000096  00000+0  20486-3 0  9997
2 49294  87.9216 307.7024 0002508  69.0024 291.1377 13.20773083208983
ONEWEB-0369             
1 49295U 21090S   26001.46082895 -.00000050  00000+0 -15739-3 0  9996
2 49295  87.9211 338.1518 0001783  81.0613 279.0722 13.19728093204420
ONEWEB-0370             
1 49296U 21090T   26001.58334415  .00000037  00000+0  59104-4 0  9996
2 49296  87.9222 307.6708 0001403  82.2096 277.9196 13.20772509207879
ONEWEB-0371             
1 49297U 21090U   26001.46874213 -.00000025  00000+0 -95054-4 0  9992
2 49297  87.9213 338.1384 0001666  81.2661 278.8660 13.19726704204469
ONEWEB-0372             
1 49298U 21090V   26001.34488784  .00000635  00000+0  15296-2 0  9997
2 49298  87.9220 307.7175 0001799  73.7116 286.4215 13.20769357207812
ONEWEB-0373             
1 49299U 21090W   26001.37185703  .00000005  00000+0 -19170-4 0  9995
2 49299  87.9212 307.7246 0001753  80.6545 279.4787 13.20771491209007
ONEWEB-0374             
1 49300U 21090X   26001.34466611  .00000160  00000+0  39835-3 0  9995
2 49300  87.9011 322.9405 0002252  83.9994 276.1393 13.14502844205642
ONEWEB-0375             
1 49301U 21090Y   26001.58650920  .00000032  00000+0  45817-4 0  9996
2 49301  87.9216 307.6631 0002096  90.3697 269.7677 13.20772020208535
ONEWEB-0376             
1 49302U 21090Z   26001.46716801 -.00000023  00000+0 -90019-4 0  9991
2 49302  87.9219 338.1274 0001734  75.4216 284.7109 13.19725418204462
ONEWEB-0377             
1 49303U 21090AA  26001.57244384  .00000165  00000+0  37458-3 0  9998
2 49303  87.9222 307.6680 0001636  84.0490 276.0830 13.20771512208524
ONEWEB-0378             
1 49304U 21090AB  26001.36726549  .00000022  00000+0  22006-4 0  9990
2 49304  87.9218 307.7224 0001840  79.3552 280.7788 13.20772572207764
ONEWEB-0379             
1 49305U 21090AC  26001.41603300  .00000303  00000+0  78292-3 0  9995
2 49305  87.9010 322.9353 0001858  78.8499 281.2840 13.14503544205655
ONEWEB-0380             
1 49306U 21090AD  26001.46400695  .00000012  00000+0 -31101-5 0  9991
2 49306  87.9212 338.1485 0001782  90.0407 270.0930 13.19726570204438
ONEWEB-0381             
1 49307U 21090AE  26001.56914661  .00000063  00000+0  12244-3 0  9996
2 49307  87.9223 307.6716 0001908  84.4477 275.6874 13.20771846207836
ONEWEB-0382             
1 49308U 21090AF  26001.40499082  .00000122  00000+0  26866-3 0  9996
2 49308  87.9222 307.6999 0002033  80.3781 279.7582 13.20769984207800
ONEWEB-0383             
1 49309U 21090AG  26001.40968517  .00000275  00000+0  70646-3 0  9995
2 49309  87.9014 322.9213 0001911  79.6507 280.4839 13.14502094205688
ONEWEB-0384             
1 49310U 21090AH  26001.39799182  .00000080  00000+0  16552-3 0  9995
2 49310  87.9233 307.7394 0002280  79.9318 280.2073 13.20800779207810
ONEWEB-0385             
1 49311U 21090AJ  26001.39711598  .00000057  00000+0  10791-3 0  9994
2 49311  87.9221 307.7063 0001878  80.3920 279.7426 13.20771458207780
ONEWEB-0386             
1 49312U 21090AK  26001.56599187  .00000060  00000+0  11614-3 0  9991
2 49312  87.9222 307.6571 0002022  78.9780 281.1581 13.20771558207829
ONEWEB-0387             
1 49313U 21090AL  26001.39869487  .00000002  00000+0 -27576-4 0  9998
2 49313  87.9213 307.7345 0001780  88.7682 271.3655 13.20772002207806
ONEWEB-0388             
1 49314U 21090AM  26001.45927300 -.00000054  00000+0 -16804-3 0  9994
2 49314  87.9208 338.1492 0001902  84.2301 275.9048 13.19726056204424
